[
  {
    "name": "ONEWEB-0628",
    "noradId": "55169",
    "line1": "1 55169U 23004AF  26200.11965653 -.00002746  00000+0 -76687-2 0  9997",
    "line2": "2 55169  87.8973 344.3055 0001108 108.0768 252.0482 13.12450993172228"
  },
  {
    "name": "ONEWEB-0629",
    "noradId": "55170",
    "line1": "1 55170U 23004AG  26200.00668872  .00000011  00000+0 -43193-5 0  9991",
    "line2": "2 55170  87.9151 359.5395 0001540  93.2302 266.9006 13.17650256171777"
  },
  {
    "name": "ONEWEB-0631",
    "noradId": "55171",
    "line1": "1 55171U 23004AH  26200.12137003 -.00000039  00000+0 -13164-3 0  9996",
    "line2": "2 55171  87.9204 329.0861 0002266  91.1015 269.0377 13.18686211173881"
  },
  {
    "name": "ONEWEB-0709",
    "noradId": "55172",
    "line1": "1 55172U 23004AJ  26200.24899715  .00000528  00000+0  14545-2 0  9999",
    "line2": "2 55172  87.8884  14.6937 0002713  96.3503 263.7934 13.11416417170072"
  },
  {
    "name": "ONEWEB-0710",
    "noradId": "55173",
    "line1": "1 55173U 23004AK  26199.94509851  .00000102  00000+0  22987-3 0  9991",
    "line2": "2 55173  87.9147 359.5477 0001862  88.3779 271.7566 13.17649168171760"
  },
  {
    "name": "ONEWEB-0711",
    "noradId": "55174",
    "line1": "1 55174U 23004AL  26200.22016366 -.00000280  00000+0 -82564-3 0  9996",
    "line2": "2 55174  87.8886  14.6879 0001749  68.3071 291.8243 13.11418465170034"
  },
  {
    "name": "ONEWEB-0713",
    "noradId": "55175",
    "line1": "1 55175U 23004AM  26200.00993749  .00000532  00000+0  14649-2 0  9998",
    "line2": "2 55175  87.8888  14.7319 0001809  77.5371 282.5960 13.11417200169991"
  },
  {
    "name": "ONEWEB-0715",
    "noradId": "55176",
    "line1": "1 55176U 23004AN  26200.00485001  .00000390  00000+0  10636-2 0  9990",
    "line2": "2 55176  87.8887  14.7331 0002512  88.5633 271.5783 13.11418058170030"
  },
  {
    "name": "ONEWEB-0716",
    "noradId": "55177",
    "line1": "1 55177U 23004AP  26200.16615796 -.00000074  00000+0 -22300-3 0  9997",
    "line2": "2 55177  87.9147 359.5067 0001828 100.8977 259.2361 13.17647907171797"
  },
  {
    "name": "ONEWEB-0717",
    "noradId": "55178",
    "line1": "1 55178U 23004AQ  26199.99740449 -.00000121  00000+0 -34372-3 0  9995",
    "line2": "2 55178  87.9162 359.5308 0001965  76.7242 283.4108 13.17649102171822"
  },
  {
    "name": "ONEWEB-0719",
    "noradId": "55179",
    "line1": "1 55179U 23004AR  26200.15939655 -.00000222  00000+0 -60618-3 0  9990",
    "line2": "2 55179  87.9159 359.4786 0001709  97.6332 262.4994 13.17648638171795"
  },
  {
    "name": "ONEWEB-0530",
    "noradId": "55796",
    "line1": "1 55796U 23029A   26200.21080032 -.00000120  00000+0 -32730-3 0  9996",
    "line2": "2 55796  87.9174 268.0850 0001744  88.0051 272.1282 13.20771488165374"
  },
  {
    "name": "ONEWEB-0534",
    "noradId": "55797",
    "line1": "1 55797U 23029B   26200.19900813  .00000081  00000+0  16770-3 0  9992",
    "line2": "2 55797  87.9175 268.0883 0002053 100.6135 259.5230 13.20769862165375"
  },
  {
    "name": "ONEWEB-0556",
    "noradId": "55798",
    "line1": "1 55798U 23029C   26200.20575628  .00000192  00000+0  44141-3 0  9993",
    "line2": "2 55798  87.9171 268.0854 0001412 117.1420 242.9858 13.20771080165375"
  },
  {
    "name": "ONEWEB-0562",
    "noradId": "55799",
    "line1": "1 55799U 23029D   26200.19228303  .00000028  00000+0  37909-4 0  9990",
    "line2": "2 55799  87.9170 268.0693 0001244  88.1061 272.0215 13.20772433165371"
  },
  {
    "name": "ONEWEB-0563",
    "noradId": "55800",
    "line1": "1 55800U 23029E   26200.18723414  .00000051  00000+0  92477-4 0  9992",
    "line2": "2 55800  87.9173 268.1004 0002134 103.3481 256.7890 13.20770191165365"
  }
]